GLOBALSTAR M001 [-]     
1 25162U 98008A   23245.90702493 -.00000142  00000+0 -34673-3 0  9995
2 25162  52.0038  74.5701 0001387 352.0461 148.9552 12.38166152162783
GLOBALSTAR M004 [-]     
1 25163U 98008B   23245.76568133 -.00000091  00000+0  71790-4 0  9995
2 25163  51.9968 247.4960 0002864 280.2151 248.3980 12.63337118179093
GLOBALSTAR M002 [-]     
1 25164U 98008C   23245.81372657 -.00000101  00000+0 -47384-3 0  9990
2 25164  52.0014  78.4055 0002021  44.7222 315.3760 11.61494938108142
GLOBALSTAR M014 [-]     
1 25306U 98023A   23245.88208282 -.00000077  00000+0  68447-5 0  9990
2 25306  51.9869  15.1898 0000551 181.8137 357.5638 11.65459126114999
GLOBALSTAR M006 [-]     
1 25307U 98023B   23245.69444801 -.00000077  00000+0 -31062-4 0  9992
2 25307  51.9956  43.7128 0003813  25.9280 347.6349 11.58153304141115
GLOBALSTAR M015 [-]     
1 25308U 98023C   23245.62434291 -.00000051  00000+0  50146-3 0  9992
2 25308  51.9811 112.4188 0012790 358.1676  15.0864 11.48849071118967
GLOBALSTAR M008 [-]     
1 25309U 98023D   23245.87149318 -.00000088  00000+0  65853-4 0  9995
2 25309  51.9972 292.1134 0002430 230.6248 301.5730 12.36026484157053
